AEROCUBE 5C             
1 40965U 15058B   26068.71197411  .00004804  00000+0  42791-3 0  9997
2 40965  64.7674 211.9094 0130672 102.4860 259.0908 14.90857126350820
STARLINK-5832           
1 57063U 23088R   26068.09180377 -.00002268  00000+0 -15286-3 0  9993
2 57063  43.0018 110.3825 0000923 248.4688 111.6056 15.02543422150287
